CZ-2C R/B               
1 54039U 22132E   26001.09970868  .00046379  00000+0  65686-3 0  9999
2 54039  97.2939   2.6861 0019468 349.4525  10.6319 15.56131277179842
GSLV R/B                
1 54149U 22138AN  25365.98400360  .00005125  00000+0  44941-3 0  9997
2 54149  87.3818 189.0278 0023394  42.3423 317.9608 14.96244827173804
XRISM                   
1 57800U 23137A   26001.13063526  .00009511  00000+0  55592-3 0  9995
2 57800  31.0036   0.3317 0007584  81.8686 278.2812 15.10580105127567
ACS3                    
1 59588U 24077B   25365.88523331  .00038785  00000+0  32630-1 0  9994
2 59588  97.2539 317.2129 0071101 290.4262  68.9275 13.86514617 84799
SZ-21 MODULE            
1 66515U 25246C   26001.02753310  .00038909  00000+0  40785-3 0  9997
2 66515  41.4762 258.2957 0002791  10.0529 350.0366 15.63632096  7464
