CCSDS_OMM_VERS = 2.0
CREATION_DATE  = 
ORIGINATOR     = 

OBJECT_NAME    = CZ-2C R/B
OBJECT_ID      = 2022-132E
CENTER_NAME    = EARTH
REF_FRAME      = TEME
TIME_SYSTEM    = UTC
MEAN_ELEMENT_THEORY = SGP/SGP4

EPOCH          = 2026-01-01T02:23:34.829952
MEAN_MOTION    = 15.56131277
ECCENTRICITY   = .0019468
INCLINATION    = 97.2939
RA_OF_ASC_NODE = 2.6861
ARG_OF_PERICENTER = 349.4525
MEAN_ANOMALY   = 10.6319

EPHEMERIS_TYPE = 0
CLASSIFICATION_TYPE = U
NORAD_CAT_ID   = 54039
ELEMENT_SET_NO = 999
REV_AT_EPOCH   = 17984
BSTAR          = .65686E-3
MEAN_MOTION_DOT = .46379E-3
MEAN_MOTION_DDOT = 0

CCSDS_OMM_VERS = 2.0
CREATION_DATE  = 
ORIGINATOR     = 

OBJECT_NAME    = GSLV R/B
OBJECT_ID      = 2022-138AN
CENTER_NAME    = EARTH
REF_FRAME      = TEME
TIME_SYSTEM    = UTC
MEAN_ELEMENT_THEORY = SGP/SGP4

EPOCH          = 2025-12-31T23:36:57.911040
MEAN_MOTION    = 14.96244827
ECCENTRICITY   = .0023394
INCLINATION    = 87.3818
RA_OF_ASC_NODE = 189.0278
ARG_OF_PERICENTER = 42.3423
MEAN_ANOMALY   = 317.9608

EPHEMERIS_TYPE = 0
CLASSIFICATION_TYPE = U
NORAD_CAT_ID   = 54149
ELEMENT_SET_NO = 999
REV_AT_EPOCH   = 17380
BSTAR          = .44941E-3
MEAN_MOTION_DOT = .5125E-4
MEAN_MOTION_DDOT = 0

CCSDS_OMM_VERS = 2.0
CREATION_DATE  = 
ORIGINATOR     = 

OBJECT_NAME    = XRISM
OBJECT_ID      = 2023-137A
CENTER_NAME    = EARTH
REF_FRAME      = TEME
TIME_SYSTEM    = UTC
MEAN_ELEMENT_THEORY = SGP/SGP4

EPOCH          = 2026-01-01T03:08:06.886464
MEAN_MOTION    = 15.10580105
ECCENTRICITY   = .0007584
INCLINATION    = 31.0036
RA_OF_ASC_NODE = 0.3317
ARG_OF_PERICENTER = 81.8686
MEAN_ANOMALY   = 278.2812

EPHEMERIS_TYPE = 0
CLASSIFICATION_TYPE = U
NORAD_CAT_ID   = 57800
ELEMENT_SET_NO = 999
REV_AT_EPOCH   = 12756
BSTAR          = .55592E-3
MEAN_MOTION_DOT = .9511E-4
MEAN_MOTION_DDOT = 0

CCSDS_OMM_VERS = 2.0
CREATION_DATE  = 
ORIGINATOR     = 

OBJECT_NAME    = ACS3
OBJECT_ID      = 2024-077B
CENTER_NAME    = EARTH
REF_FRAME      = TEME
TIME_SYSTEM    = UTC
MEAN_ELEMENT_THEORY = SGP/SGP4

EPOCH          = 2025-12-31T21:14:44.157984
MEAN_MOTION    = 13.86514617
ECCENTRICITY   = .0071101
INCLINATION    = 97.2539
RA_OF_ASC_NODE = 317.2129
ARG_OF_PERICENTER = 290.4262
MEAN_ANOMALY   = 68.9275

EPHEMERIS_TYPE = 0
CLASSIFICATION_TYPE = U
NORAD_CAT_ID   = 59588
ELEMENT_SET_NO = 999
REV_AT_EPOCH   = 8479
BSTAR          = .3263E-1
MEAN_MOTION_DOT = .38785E-3
MEAN_MOTION_DDOT = 0

CCSDS_OMM_VERS = 2.0
CREATION_DATE  = 
ORIGINATOR     = 

OBJECT_NAME    = SZ-21 MODULE
OBJECT_ID      = 2025-246C
CENTER_NAME    = EARTH
REF_FRAME      = TEME
TIME_SYSTEM    = UTC
MEAN_ELEMENT_THEORY = SGP/SGP4

EPOCH          = 2026-01-01T00:39:38.859840
MEAN_MOTION    = 15.63632096
ECCENTRICITY   = .0002791
INCLINATION    = 41.4762
RA_OF_ASC_NODE = 258.2957
ARG_OF_PERICENTER = 10.0529
MEAN_ANOMALY   = 350.0366

EPHEMERIS_TYPE = 0
CLASSIFICATION_TYPE = U
NORAD_CAT_ID   = 66515
ELEMENT_SET_NO = 999
REV_AT_EPOCH   = 746
BSTAR          = .40785E-3
MEAN_MOTION_DOT = .38909E-3
MEAN_MOTION_DDOT = 0

